NORAD_CAT_ID,OBJECT_NAME,OBJECT_TYPE,EPOCH,MEAN_MOTION,ECCENTRICITY,INCLINATION,RA_OF_ASC_NODE,ARG_OF_PERICENTER,MEAN_ANOMALY,BSTAR,MEAN_MOTION_DOT,MEAN_MOTION_DDOT,TLE_LINE0,TLE_LINE1,TLE_LINE2,SEMIMAJOR_AXIS,PERIOD,APOGEE,PERIGEE,DECAYED
51724.0,STARLINK-3529,PAYLOAD,2022-12-19 17:54:50,15.08827053,0.0002576,53.2171,208.1417,23.9974,336.1138,7.931e-05,9.74e-06,0.0,0 STARLINK-3529,1 51724U 22016L   22353.74641747  .00000974  00000-0  79310-4 0  9999,2 51724  53.2171 208.1417 0002576  23.9974 336.1138 15.08827053 45897,6917.92,95.438,541.567,538.003,0.0
51724.0,STARLINK-3529,PAYLOAD,2022-12-19 21:05:36,15.08834637,0.0002415,53.2179,207.5464,27.2384,332.8735,8.6865e-05,1.094e-05,0.0,0 STARLINK-3529,1 51724U 22016L   22353.87889374  .00001094  00000-0  86865-4 0  9990,2 51724  53.2179 207.5464 0002415  27.2384 332.8735 15.08834637 46976,6917.897,95.438,541.432,538.091,0.0
51724.0,STARLINK-3529,PAYLOAD,2022-12-20 01:51:45,15.08837311,0.000246,53.2175,206.6542,26.8602,333.2517,0.00010955,1.455e-05,0.0,0 STARLINK-3529,1 51724U 22016L   22354.07761259  .00001455  00000-0  10955-3 0  9991,2 51724  53.2175 206.6542 0002460  26.8602 333.2517 15.08837311 45948,6917.889,95.438,541.455,538.052,0.0
51724.0,STARLINK-3529,PAYLOAD,2022-12-20 19:20:59,15.08847742,0.0002587,53.2166,203.3835,24.4104,335.7011,0.00017106,2.436e-05,0.0,0 STARLINK-3529,1 51724U 22016L   22354.80624661  .00002436  00000-0  17106-3 0  9992,2 51724  53.2166 203.3835 0002587  24.4104 335.7011 15.08847742 47114,6917.857,95.437,541.511,537.932,0.0
51724.0,STARLINK-3529,PAYLOAD,2022-12-21 00:07:10,15.08834975,0.000248,53.2163,202.492,29.5712,330.542,0.00067412,0.00010455,0.0,0 STARLINK-3529,1 51724U 22016L   22355.00497994  .00010455  00000-0  67412-3 0  9997,2 51724  53.2163 202.4920 0002480  29.5712 330.5420 15.08834975 47143,6917.896,95.438,541.476,538.045,0.0
51724.0,STARLINK-3529,PAYLOAD,2022-12-21 12:50:15,15.08843496,0.0002653,53.215,200.1119,26.9637,333.1493,8.973e-05,1.14e-05,0.0,0 STARLINK-3529,1 51724U 22016L   22355.53489695  .00001140  00000-0  89730-4 0  9993,2 51724  53.2150 200.1119 0002653  26.9637 333.1493 15.08843496 46161,6917.87,95.437,541.57,537.899,0.0
51724.0,STARLINK-3529,PAYLOAD,2022-12-21 23:57:57,15.088350699999998,0.0002114,53.2167,198.0308,28.1575,331.9531,-1.0300999999999997e-05,-4.52e-06,0.0,0 STARLINK-3529,1 51724U 22016L   22355.99858288 -.00000452  00000-0 -10301-4 0  9996,2 51724  53.2167 198.0308 0002114  28.1575 331.9531 15.08835070 47294,6917.895,95.438,541.2230000000002,538.298,0.0
51724.0,STARLINK-3529,PAYLOAD,2022-12-22 06:19:30,15.0883476,0.0002533,53.2171,196.8423,28.0646,332.0482,-2.5206e-05,-6.900000000000003e-06,0.0,0 STARLINK-3529,1 51724U 22016L   22356.26354539 -.00000690  00000-0 -25206-4 0  9991,2 51724  53.2171 196.8423 0002533  28.0646 332.0482 15.08834760 46275,6917.896,95.438,541.514,538.009,0.0
51724.0,STARLINK-3529,PAYLOAD,2022-12-22 14:16:25,15.08836717,0.0002544,53.2168,195.355,30.4642,329.6497,-3.1401999999999995e-05,-7.88e-06,0.0,0 STARLINK-3529,1 51724U 22016L   22356.59474456 -.00000788  00000-0 -31402-4 0  9991,2 51724  53.2168 195.3550 0002544  30.4642 329.6497 15.08836717 46329,6917.89,95.438,541.515,537.996,0.0
51724.0,STARLINK-3529,PAYLOAD,2022-12-23 14:07:12,15.08837179,0.0002489,53.2169,190.8947,32.6226,327.492,4.531e-05,4.33e-06,0.0,0 STARLINK-3529,1 51724U 22016L   22357.58834394  .00000433  00000-0  45310-4 0  9990,2 51724  53.2169 190.8947 0002489  32.6226 327.4920 15.08837179 47534,6917.889,95.438,541.476,538.0319999999998,0.0
51724.0,STARLINK-3529,PAYLOAD,2022-12-24 12:22:36,15.08838898,0.0002594,53.2171,186.7315,34.9914,325.1248,0.00016709,2.372e-05,0.0,0 STARLINK-3529,1 51724U 22016L   22358.51570372  .00002372  00000-0  16709-3 0  9990,2 51724  53.2171 186.7315 0002594  34.9914 325.1248 15.08838898 46611,6917.884,95.438,541.543,537.9540000000002,0.0
51724.0,STARLINK-3529,PAYLOAD,2022-12-24 21:54:55,15.08844845,0.0002703,53.2159,184.9473,36.215,323.9025,0.00019167,2.764e-05,0.0,0 STARLINK-3529,1 51724U 22016L   22358.91314142  .00002764  00000-0  19167-3 0  9991,2 51724  53.2159 184.9473 0002703  36.2150 323.9025 15.08844845 47733,6917.866,95.437,541.6,537.861,0.0
51724.0,STARLINK-3529,PAYLOAD,2022-12-25 12:13:23,15.088487,0.0002736,53.2158,182.2709,37.4959,322.6223,0.00016746,2.378e-05,0.0,0 STARLINK-3529,1 51724U 22016L   22359.50929822  .00002378  00000-0  16746-3 0  9995,2 51724  53.2158 182.2709 0002736  37.4959 322.6223 15.08848700 46763,6917.854,95.437,541.612,537.826,0.0
51724.0,STARLINK-3529,PAYLOAD,2022-12-25 18:34:55,15.08851703,0.0002747,53.2158,181.0814,38.0664,322.0522,0.00019668,2.844e-05,0.0,0 STARLINK-3529,1 51724U 22016L   22359.77425559  .00002844  00000-0  19668-3 0  9996,2 51724  53.2158 181.0814 0002747  38.0664 322.0522 15.08851703 46807,6917.845,95.437,541.61,537.809,0.0
51724.0,STARLINK-3529,PAYLOAD,2022-12-25 23:21:04,15.08852457,0.0002768999999999,53.2159,180.1895,38.4901,321.6288,0.00018793,2.705e-05,0.0,0 STARLINK-3529,1 51724U 22016L   22359.97297375  .00002705  00000-0  18793-3 0  9995,2 51724  53.2159 180.1895 0002769  38.4901 321.6288 15.08852457 47890,6917.842,95.437,541.623,537.7919999999998,0.0
51724.0,STARLINK-3529,PAYLOAD,2022-12-26 20:01:05,15.08844382,0.0002821,53.2163,176.3237,40.1201,319.9999,2.0871e-05,4.4e-07,0.0,0 STARLINK-3529,1 51724U 22016L   22360.83409500  .00000044  00000-0  20871-4 0  9992,2 51724  53.2163 176.3237 0002821  40.1201 319.9999 15.08844382 48027,6917.8669999999975,95.437,541.684,537.78,0.0
51724.0,STARLINK-3529,PAYLOAD,2022-12-27 11:54:56,15.08849152,0.0002807,53.2171,173.35,40.3898,319.7302,5.804600000000001e-05,6.36e-06,0.0,0 STARLINK-3529,1 51724U 22016L   22361.49648962  .00000636  00000-0  58046-4 0  9994,2 51724  53.2171 173.3500 0002807  40.3898 319.7302 15.08849152 47063,6917.852,95.437,541.659,537.776,0.0
51724.0,STARLINK-3529,PAYLOAD,2022-12-27 18:16:28,15.08852717,0.0002787,53.217,172.1601,40.5907,319.5292,4.6525e-05,4.52e-06,0.0,0 STARLINK-3529,1 51724U 22016L   22361.76144553  .00000452  00000-0  46525-4 0  9996,2 51724  53.2170 172.1601 0002787  40.5907 319.5292 15.08852717 47103,6917.842,95.437,541.635,537.779,0.0
51724.0,STARLINK-3529,PAYLOAD,2022-12-27 19:51:52,15.0885285,0.0002793,53.217,171.8628,40.7418,319.3782,4.7394e-05,4.66e-06,0.0,0 STARLINK-3529,1 51724U 22016L   22361.82768519  .00000466  00000-0  47394-4 0  9997,2 51724  53.2170 171.8628 0002793  40.7418 319.3782 15.08852850 48172,6917.840999999999,95.437,541.638,537.774,0.0
51724.0,STARLINK-3529,PAYLOAD,2022-12-28 11:45:43,15.08844977,0.0002796999999999,53.2168,168.8893,40.6553,319.4647,5.1602e-05,5.33e-06,0.0,0 STARLINK-3529,1 51724U 22016L   22362.49008652  .00000533  00000-0  51602-4 0  9998,2 51724  53.2168 168.8893 0002797  40.6553 319.4647 15.08844977 47218,6917.865,95.437,541.665,537.795,0.0
51724.0,STARLINK-3529,PAYLOAD,2022-12-28 14:56:30,15.08838158,0.0002796999999999,53.2168,168.2945,40.0532,320.0666,4.1686e-05,3.75e-06,0.0,0 STARLINK-3529,1 51724U 22016L   22362.62257065  .00000375  00000-0  41686-4 0  9992,2 51724  53.2168 168.2945 0002797  40.0532 320.0666 15.08838158 48293,6917.886,95.438,541.686,537.816,0.0
51724.0,STARLINK-3529,PAYLOAD,2022-12-29 10:01:08,15.08832432,0.0002758,53.2162,164.7271,41.5417,318.5785,-1.1386e-05,-4.7e-06,0.0,0 STARLINK-3529,1 51724U 22016L   22363.41745690 -.00000470  00000-0 -11386-4 0  9998,2 51724  53.2162 164.7271 0002758  41.5417 318.5785 15.08832432 48412,6917.904,95.438,541.6759999999998,537.861,0.0
51724.0,STARLINK-3529,PAYLOAD,2022-12-30 11:27:18,15.08836642,0.000273,53.2166,159.9684,43.1772,316.9433,7.3882e-05,8.87e-06,0.0,0 STARLINK-3529,1 51724U 22016L   22364.47729547  .00000887  00000-0  73882-4 0  9997,2 51724  53.2166 159.9684 0002730  43.1772 316.9433 15.08836642 48578,6917.891,95.438,541.644,537.867,0.0
51724.0,STARLINK-3529,PAYLOAD,2022-12-31 03:21:08,15.08848867,0.000279,53.2172,156.9954,41.8765,318.244,0.000149,2.084e-05,0.0,0 STARLINK-3529,1 51724U 22016L   22365.13968713  .00002084  00000-0  14900-3 0  9997,2 51724  53.2172 156.9954 0002790  41.8765 318.2440 15.08848867 48671,6917.853,95.437,541.648,537.788,0.0
51724.0,STARLINK-3529,PAYLOAD,2022-12-31 09:42:41,15.08843319,0.0002791,53.2173,155.8057,41.3323,318.788,0.00025115,3.711e-05,0.0,0 STARLINK-3529,1 51724U 22016L   22365.40464867  .00003711  00000-0  25115-3 0  9996,2 51724  53.2173 155.8057 0002791  41.3323 318.7880 15.08843319 47657,6917.87,95.437,541.6659999999998,537.804,0.0
51724.0,STARLINK-3529,PAYLOAD,2022-12-31 17:39:37,15.08842627,0.0002773999999999,53.2164,154.3185,39.8911,320.2284,0.00017685,2.527e-05,0.0,0 STARLINK-3529,1 51724U 22016L   22365.73585270  .00002527  00000-0  17685-3 0  9991,2 51724  53.2164 154.3185 0002774  39.8911 320.2284 15.08842627 48769,6917.871999999999,95.437,541.656,537.818,0.0
51724.0,STARLINK-3529,PAYLOAD,2023-01-01 11:08:52,15.08832279,0.0002737,53.2161,151.0474,40.2757,319.8438,-6.0898e-05,-1.257e-05,0.0,0 STARLINK-3529,1 51724U 22016L   23001.46449761 -.00001257  00000-0 -60898-4 0  9999,2 51724  53.2161 151.0474 0002737  40.2757 319.8438 15.08832279 47816,6917.904,95.438,541.6619999999998,537.876,0.0
51724.0,STARLINK-3529,PAYLOAD,2023-01-01 15:55:02,15.08826226,0.0002871,53.2162,150.1555,42.0534,318.0678,-0.00016801,-2.961e-05,0.0,0 STARLINK-3529,1 51724U 22016L   23001.66322205 -.00002961  00000-0 -16801-3 0  9991,2 51724  53.2162 150.1555 0002871  42.0534 318.0678 15.08826226 48902,6917.922,95.438,541.774,537.8009999999998,0.0
51724.0,STARLINK-3529,PAYLOAD,2023-01-02 10:59:39,15.08840941,0.0002688,53.2174,146.5873,39.9708,320.1481,-7.9635e-07,-3.01e-06,0.0,0 STARLINK-3529,1 51724U 22016L   23002.45810006 -.00000301  00000-0 -79635-6 0  9993,2 51724  53.2174 146.5873 0002688  39.9708 320.1481 15.08840941 49021,6917.878000000002,95.437,541.602,537.883,0.0
